[{"OBJECT_NAME":"STARLINK-36779","OBJECT_ID":"2026-034V","EPOCH":"2026-03-17T14:00:01.999872","MEAN_MOTION":15.8087194,"ECCENTRICITY":0.00010862,"INCLINATION":53.1589,"RA_OF_ASC_NODE":171.63,"ARG_OF_PERICENTER":86.8851,"MEAN_ANOMALY":65.6465,"EPHEMERIS_TYPE":0,"CLASSIFICATION_TYPE":"U","NORAD_CAT_ID":67869,"ELEMENT_SET_NO":999,"REV_AT_EPOCH":512,"BSTAR":0.0001243132,"MEAN_MOTION_DOT":0.00023903,"MEAN_MOTION_DDOT":0},{"OBJECT_NAME":"STARLINK-36770","OBJECT_ID":"2026-034W","EPOCH":"2026-03-17T13:19:19.865856","MEAN_MOTION":15.80912228,"ECCENTRICITY":9.155e-5,"INCLINATION":53.1595,"RA_OF_ASC_NODE":171.751,"ARG_OF_PERICENTER":59.9005,"MEAN_ANOMALY":300.2109,"EPHEMERIS_TYPE":0,"CLASSIFICATION_TYPE":"U","NORAD_CAT_ID":67870,"ELEMENT_SET_NO":999,"REV_AT_EPOCH":518,"BSTAR":0.0016387672,"MEAN_MOTION_DOT":0.0033627,"MEAN_MOTION_DDOT":0},{"OBJECT_NAME":"STARLINK-36769","OBJECT_ID":"2026-034X","EPOCH":"2026-03-17T13:20:24.556992","MEAN_MOTION":15.80904317,"ECCENTRICITY":0.00012554,"INCLINATION":53.1588,"RA_OF_ASC_NODE":171.7564,"ARG_OF_PERICENTER":59.9867,"MEAN_ANOMALY":300.128,"EPHEMERIS_TYPE":0,"CLASSIFICATION_TYPE":"U","NORAD_CAT_ID":67871,"ELEMENT_SET_NO":999,"REV_AT_EPOCH":518,"BSTAR":0.0016466347,"MEAN_MOTION_DOT":0.0033782,"MEAN_MOTION_DDOT":0},{"OBJECT_NAME":"STARLINK-36786","OBJECT_ID":"2026-034Y","EPOCH":"2026-03-17T13:18:15.304320","MEAN_MOTION":15.80883801,"ECCENTRICITY":0.00012635,"INCLINATION":53.1592,"RA_OF_ASC_NODE":171.7459,"ARG_OF_PERICENTER":93.6833,"MEAN_ANOMALY":266.4335,"EPHEMERIS_TYPE":0,"CLASSIFICATION_TYPE":"U","NORAD_CAT_ID":67872,"ELEMENT_SET_NO":999,"REV_AT_EPOCH":518,"BSTAR":0.0013614343,"MEAN_MOTION_DOT":0.00276937,"MEAN_MOTION_DDOT":0},{"OBJECT_NAME":"STARLINK-36783","OBJECT_ID":"2026-034Z","EPOCH":"2026-03-17T13:17:10.330656","MEAN_MOTION":15.80894536,"ECCENTRICITY":0.00010309,"INCLINATION":53.1589,"RA_OF_ASC_NODE":171.7407,"ARG_OF_PERICENTER":65.1034,"MEAN_ANOMALY":295.0095,"EPHEMERIS_TYPE":0,"CLASSIFICATION_TYPE":"U","NORAD_CAT_ID":67873,"ELEMENT_SET_NO":999,"REV_AT_EPOCH":518,"BSTAR":0.0016186156,"MEAN_MOTION_DOT":0.00331674,"MEAN_MOTION_DDOT":0},{"OBJECT_NAME":"STARLINK-36730","OBJECT_ID":"2026-034AA","EPOCH":"2026-03-17T13:16:05.438208","MEAN_MOTION":15.80912897,"ECCENTRICITY":0.00011955,"INCLINATION":53.159,"RA_OF_ASC_NODE":171.7359,"ARG_OF_PERICENTER":63.3871,"MEAN_ANOMALY":296.7274,"EPHEMERIS_TYPE":0,"CLASSIFICATION_TYPE":"U","NORAD_CAT_ID":67874,"ELEMENT_SET_NO":999,"REV_AT_EPOCH":518,"BSTAR":0.0016766782,"MEAN_MOTION_DOT":0.003444,"MEAN_MOTION_DDOT":0},{"OBJECT_NAME":"STARLINK-36727","OBJECT_ID":"2026-034AB","EPOCH":"2026-03-17T17:48:07.332192","MEAN_MOTION":15.8095597,"ECCENTRICITY":0.0001417,"INCLINATION":53.1601,"RA_OF_ASC_NODE":170.7838,"ARG_OF_PERICENTER":39.4234,"MEAN_ANOMALY":320.6892,"EPHEMERIS_TYPE":0,"CLASSIFICATION_TYPE":"U","NORAD_CAT_ID":67875,"ELEMENT_SET_NO":999,"REV_AT_EPOCH":521,"BSTAR":0.0013141,"MEAN_MOTION_DOT":0.00267884,"MEAN_MOTION_DDOT":0},{"OBJECT_NAME":"STARLINK-36743","OBJECT_ID":"2026-034AC","EPOCH":"2026-03-17T13:13:55.948800","MEAN_MOTION":15.80884353,"ECCENTRICITY":7.973e-5,"INCLINATION":53.1598,"RA_OF_ASC_NODE":171.7258,"ARG_OF_PERICENTER":89.1778,"MEAN_ANOMALY":270.9336,"EPHEMERIS_TYPE":0,"CLASSIFICATION_TYPE":"U","NORAD_CAT_ID":67876,"ELEMENT_SET_NO":999,"REV_AT_EPOCH":518,"BSTAR":0.0018070691,"MEAN_MOTION_DOT":0.00371964,"MEAN_MOTION_DDOT":0},{"OBJECT_NAME":"STARLINK-36784","OBJECT_ID":"2026-034AD","EPOCH":"2026-03-17T13:12:50.749632","MEAN_MOTION":15.80958218,"ECCENTRICITY":8.782e-5,"INCLINATION":53.159,"RA_OF_ASC_NODE":171.7207,"ARG_OF_PERICENTER":111.8269,"MEAN_ANOMALY":248.2848,"EPHEMERIS_TYPE":0,"CLASSIFICATION_TYPE":"U","NORAD_CAT_ID":67877,"ELEMENT_SET_NO":999,"REV_AT_EPOCH":518,"BSTAR":0.00092063918,"MEAN_MOTION_DOT":0.00185693,"MEAN_MOTION_DDOT":0},{"OBJECT_NAME":"STARLINK-36689","OBJECT_ID":"2026-034AE","EPOCH":"2026-03-17T17:44:52.738656","MEAN_MOTION":15.8097857,"ECCENTRICITY":0.0001081,"INCLINATION":53.1593,"RA_OF_ASC_NODE":170.7652,"ARG_OF_PERICENTER":43.199,"MEAN_ANOMALY":316.9118,"EPHEMERIS_TYPE":0,"CLASSIFICATION_TYPE":"U","NORAD_CAT_ID":67878,"ELEMENT_SET_NO":999,"REV_AT_EPOCH":521,"BSTAR":0.0013621,"MEAN_MOTION_DOT":0.00278339,"MEAN_MOTION_DDOT":0},{"OBJECT_NAME":"STARLINK-36818","OBJECT_ID":"2026-035A","EPOCH":"2026-03-17T20:00:01.999008","MEAN_MOTION":15.75242008,"ECCENTRICITY":0.0001583,"INCLINATION":97.2861,"RA_OF_ASC_NODE":9.6148,"ARG_OF_PERICENTER":103.8991,"MEAN_ANOMALY":275.0753,"EPHEMERIS_TYPE":0,"CLASSIFICATION_TYPE":"U","NORAD_CAT_ID":67879,"ELEMENT_SET_NO":999,"REV_AT_EPOCH":506,"BSTAR":-0.00071161,"MEAN_MOTION_DOT":-0.00105215,"MEAN_MOTION_DDOT":0},{"OBJECT_NAME":"STARLINK-36821","OBJECT_ID":"2026-035B","EPOCH":"2026-03-17T20:00:01.999008","MEAN_MOTION":15.75220633,"ECCENTRICITY":0.0001673,"INCLINATION":97.286,"RA_OF_ASC_NODE":9.6222,"ARG_OF_PERICENTER":95.7434,"MEAN_ANOMALY":299.237,"EPHEMERIS_TYPE":0,"CLASSIFICATION_TYPE":"U","NORAD_CAT_ID":67880,"ELEMENT_SET_NO":999,"REV_AT_EPOCH":506,"BSTAR":-0.0004125,"MEAN_MOTION_DOT":-0.00061301,"MEAN_MOTION_DDOT":0},{"OBJECT_NAME":"STARLINK-36808","OBJECT_ID":"2026-035C","EPOCH":"2026-03-17T19:35:53.201472","MEAN_MOTION":15.80887109,"ECCENTRICITY":0.000111,"INCLINATION":97.2865,"RA_OF_ASC_NODE":9.6236,"ARG_OF_PERICENTER":152.7389,"MEAN_ANOMALY":207.3938,"EPHEMERIS_TYPE":0,"CLASSIFICATION_TYPE":"U","NORAD_CAT_ID":67881,"ELEMENT_SET_NO":999,"REV_AT_EPOCH":512,"BSTAR":0.0014627,"MEAN_MOTION_DOT":0.00290505,"MEAN_MOTION_DDOT":0},{"OBJECT_NAME":"STARLINK-36817","OBJECT_ID":"2026-035D","EPOCH":"2026-03-17T19:32:38.736672","MEAN_MOTION":15.8088318,"ECCENTRICITY":0.0001901,"INCLINATION":97.2893,"RA_OF_ASC_NODE":9.6262,"ARG_OF_PERICENTER":130.5188,"MEAN_ANOMALY":229.6246,"EPHEMERIS_TYPE":0,"CLASSIFICATION_TYPE":"U","NORAD_CAT_ID":67882,"ELEMENT_SET_NO":999,"REV_AT_EPOCH":512,"BSTAR":0.0015774,"MEAN_MOTION_DOT":0.00314102,"MEAN_MOTION_DDOT":0},{"OBJECT_NAME":"STARLINK-36856","OBJECT_ID":"2026-035E","EPOCH":"2026-03-17T19:33:43.089984","MEAN_MOTION":15.80911368,"ECCENTRICITY":0.0001533,"INCLINATION":97.2884,"RA_OF_ASC_NODE":9.6252,"ARG_OF_PERICENTER":126.4228,"MEAN_ANOMALY":233.7182,"EPHEMERIS_TYPE":0,"CLASSIFICATION_TYPE":"U","NORAD_CAT_ID":67883,"ELEMENT_SET_NO":999,"REV_AT_EPOCH":512,"BSTAR":0.001196,"MEAN_MOTION_DOT":0.00236296,"MEAN_MOTION_DDOT":0},{"OBJECT_NAME":"STARLINK-36842","OBJECT_ID":"2026-035F","EPOCH":"2026-03-17T20:00:01.999008","MEAN_MOTION":15.75167812,"ECCENTRICITY":0.0001456,"INCLINATION":97.2867,"RA_OF_ASC_NODE":9.6277,"ARG_OF_PERICENTER":95.8417,"MEAN_ANOMALY":315.2889,"EPHEMERIS_TYPE":0,"CLASSIFICATION_TYPE":"U","NORAD_CAT_ID":67884,"ELEMENT_SET_NO":999,"REV_AT_EPOCH":506,"BSTAR":-0.00049885,"MEAN_MOTION_DOT":-0.00073827,"MEAN_MOTION_DDOT":0}]
