STARLINK-36779          
1 67869U 26034V   26076.58335648  .00023903  00000+0  12431-3 0  9994
2 67869  53.1589 171.6300 0001086  86.8851  65.6465 15.80871940  5121
STARLINK-36770          
1 67870U 26034W   26076.55509104  .00336270  00000+0  16388-2 0  9991
2 67870  53.1595 171.7510 0000915  59.9005 300.2109 15.80912228  5180
STARLINK-36769          
1 67871U 26034X   26076.55583978  .00337820  00000+0  16466-2 0  9992
2 67871  53.1588 171.7564 0001255  59.9867 300.1280 15.80904317  5185
STARLINK-36786          
1 67872U 26034Y   26076.55434380  .00276937  00000+0  13614-2 0  9998
2 67872  53.1592 171.7459 0001263  93.6833 266.4335 15.80883801  5180
STARLINK-36783          
1 67873U 26034Z   26076.55359179  .00331674  00000+0  16186-2 0  9998
2 67873  53.1589 171.7407 0001030  65.1034 295.0095 15.80894536  5187
STARLINK-36730          
1 67874U 26034AA  26076.55284072  .00344400  00000+0  16767-2 0  9994
2 67874  53.1590 171.7359 0001195  63.3871 296.7274 15.80912897  5185
STARLINK-36727          
1 67875U 26034AB  26076.74175153  .00267884  00000+0  13141-2 0  9998
2 67875  53.1601 170.7838 0001417  39.4234 320.6892 15.80955970  5210
STARLINK-36743          
1 67876U 26034AC  26076.55134200  .00371964  00000+0  18071-2 0  9998
2 67876  53.1598 171.7258 0000797  89.1778 270.9336 15.80884353  5180
STARLINK-36784          
1 67877U 26034AD  26076.55058738  .00185693  00000+0  92064-3 0  9997
2 67877  53.1590 171.7207 0000878 111.8269 248.2848 15.80958218  5183
STARLINK-36689          
1 67878U 26034AE  26076.73949929  .00278339  00000+0  13621-2 0  9990
2 67878  53.1593 170.7652 0001081  43.1990 316.9118 15.80978570  5215
STARLINK-36818          
1 67879U 26035A   26076.83335647 -.00105215  00000+0 -71161-3 0  9997
2 67879  97.2861   9.6148 0001583 103.8991 275.0753 15.75242008  5062
STARLINK-36821          
1 67880U 26035B   26076.83335647 -.00061301  00000+0 -41250-3 0  9992
2 67880  97.2860   9.6222 0001673  95.7434 299.2370 15.75220633  5060
STARLINK-36808          
1 67881U 26035C   26076.81658798  .00290505  00000+0  14627-2 0  9991
2 67881  97.2865   9.6236 0001110 152.7389 207.3938 15.80887109  5120
STARLINK-36817          
1 67882U 26035D   26076.81433723  .00314102  00000+0  15774-2 0  9995
2 67882  97.2893   9.6262 0001901 130.5188 229.6246 15.80883180  5124
STARLINK-36856          
1 67883U 26035E   26076.81508206  .00236296  00000+0  11960-2 0  9995
2 67883  97.2884   9.6252 0001533 126.4228 233.7182 15.80911368  5129
STARLINK-36842          
1 67884U 26035F   26076.83335647 -.00073827  00000+0 -49885-3 0  9994
2 67884  97.2867   9.6277 0001456  95.8417 315.2889 15.75167812  5065
